1 42038U 17008CU  21024.44534637  .00003229  00000-0  12193-3 0  9993
2 42038  97.3401  94.7392 0005557 249.5828 110.4815 15.27717580219204
1 42038U 17008CU  21024.70734377  .00003265  00000-0  12326-3 0  9993
2 42038  97.3401  94.9971 0005572 248.3677 111.6969 15.27719312219247
1 42038U 17008CU  21024.90384151  .00003055  00000-0  11549-3 0  9999
2 42038  97.3401  95.1906 0005581 247.4742 112.5907 15.27719863219277
1 42038U 17008CU  21025.42783406  .00003703  00000-0  13940-3 0  9990
2 42038  97.3401  95.7065 0005606 245.0788 114.9869 15.27725382219356
1 42038U 17008CU  21025.82082771  .00004781  00000-0  17912-3 0  9991
2 42038  97.3401  96.0934 0005614 243.3833 116.6831 15.27730727219410
1 42038U 17008CU  21026.27931811  .00006471  00000-0  24139-3 0  9996
2 42038  97.3400  96.5448 0005637 241.4134 118.6539 15.27739024219485
1 42038U 17008CU  21026.93430277  .00004712  00000-0  17652-3 0  9997
2 42038  97.3398  97.1897 0005681 238.4236 121.6449 15.27741127219586
1 42038U 17008CU  21027.13079751  .00004705  00000-0  17628-3 0  9991
2 42038  97.3397  97.3831 0005696 237.6162 122.4527 15.27743186219617
1 42038U 17008CU  21027.45828782  .00005152  00000-0  19270-3 0  9994
2 42038  97.3396  97.7055 0005722 236.2416 123.8279 15.27747962219665
1 42038U 17008CU  21027.91677335  .00004799  00000-0  17967-3 0  9998
2 42038  97.3394  98.1568 0005757 234.3246 125.7458 15.27752057219734
1 42038U 17008CU  21028.17876432  .00004507  00000-0  16890-3 0  9997
2 42038  97.3394  98.4148 0005775 233.2189 126.8521 15.27755017219771
1 42038U 17008CU  21028.30975964  .00004792  00000-0  17940-3 0  9995
2 42038  97.3393  98.5437 0005781 232.6542 127.4172 15.27756904219792
1 42038U 17008CU  21028.89923815  .00003381  00000-0  12736-3 0  9998
2 42038  97.3391  99.1240 0005820 230.0790 129.9939 15.27759609219883
1 42038U 17008CU  21029.35772033  .00003387  00000-0  12759-3 0  9995
2 42038  97.3390  99.5752 0005851 228.1557 131.9183 15.27762979219953
1 42038U 17008CU  21029.88169895  .00003121  00000-0  11774-3 0  9991
2 42038  97.3387 100.0910 0005881 225.8794 134.1962 15.27766235220033
1 42038U 17008CU  21030.47117353  .00002832  00000-0  10710-3 0  9997
2 42038  97.3385 100.6711 0005933 223.3324 136.7450 15.27769654220124
1 42038U 17008CU  21030.60216762  .00002786  00000-0  10540-3 0  9995
2 42038  97.3384 100.8001 0005948 222.7852 137.2925 15.27770563220148
1 42038U 17008CU  21031.71561487  .00002670  00000-0  10108-3 0  9997
2 42038  97.3380 101.8960 0006051 218.2901 141.7910 15.27777549220314
1 42038U 17008CU  21032.17409211  .00002711  00000-0  10260-3 0  9999
2 42038  97.3380 102.3473 0006076 216.5404 143.5421 15.27779965220383
1 42038U 17008CU  21032.43607845  .00002961  00000-0  11179-3 0  9998
2 42038  97.3379 102.6052 0006115 215.3997 144.6838 15.27782367220424
1 42038U 17008CU  21033.48402169  .00003827  00000-0  14367-3 0  9990
2 42038  97.3378 103.6368 0006203 211.5312 148.5557 15.27791421220580
1 42038U 17008CU  21033.87699885  .00004049  00000-0  15181-3 0  9998
2 42038  97.3378 104.0236 0006237 209.9672 150.1211 15.27794733220648
1 42038U 17008CU  21034.46646373  .00003155  00000-0  11889-3 0  9996
2 42038  97.3378 104.6039 0006300 207.6450 152.4456 15.27795831220731
1 42038U 17008CU  21034.92493454  .00003738  00000-0  14034-3 0  9999
2 42038  97.3377 105.0552 0006337 205.7798 154.3126 15.27800999220804
1 42038U 17008CU  21035.05592633  .00003914  00000-0  14681-3 0  9997
2 42038  97.3376 105.1842 0006360 205.2709 154.8220 15.27802077220820
1 42038U 17008CU  21035.44890042  .00004350  00000-0  16284-3 0  9991
2 42038  97.3376 105.5711 0006397 203.8406 156.2538 15.27806242220889
1 42038U 17008CU  21035.64538720  .00004066  00000-0  15239-3 0  9998
2 42038  97.3377 105.7645 0006423 203.0672 157.0280 15.27807311220910
1 42038U 17008CU  21036.16935124  .00003014  00000-0  11365-3 0  9993
2 42038  97.3377 106.2803 0006473 201.0037 159.0938 15.27808981220994
1 42038U 17008CU  21036.30034198  .00003262  00000-0  12278-3 0  9999
2 42038  97.3377 106.4093 0006486 200.5067 159.5913 15.27810562221018
1 42038U 17008CU  21036.69331413  .00003273  00000-0  12317-3 0  9997
2 42038  97.3378 106.7961 0006521 198.9419 161.1579 15.27813334221070
1 42038U 17008CU  21037.15178087  .00002674  00000-0  10113-3 0  9991
2 42038  97.3377 107.2474 0006561 197.1694 162.9324 15.27814891221148
1 42038U 17008CU  21037.80673221  .00002319  00000-0  88039-4 0  9992
2 42038  97.3377 107.8921 0006633 194.8302 165.2744 15.27817263221240
1 42038U 17008CU  21038.26519612  .00004063  00000-0  15217-3 0  9991
2 42038  97.3376 108.3434 0006665 193.3562 166.7502 15.27825816221310
1 42038U 17008CU  21038.72365914  .00004964  00000-0  18529-3 0  9995
2 42038  97.3376 108.7947 0006708 191.6320 168.4766 15.27831789221388
1 42038U 17008CU  21039.11662773  .00003977  00000-0  14900-3 0  9994
2 42038  97.3376 109.1816 0006761 190.2801 169.8302 15.27830389221449
1 42038U 17008CU  21039.24761691  .00003277  00000-0  12327-3 0  9991
2 42038  97.3376 109.3106 0006777 189.8103 170.3005 15.27829738221464
1 42038U 17008CU  21039.90256187  .00003036  00000-0  11436-3 0  9996
2 42038  97.3374 109.9552 0006835 187.3335 172.7806 15.27833296221568
1 42038U 17008CU  21040.16453929  .00003001  00000-0  11308-3 0  9999
2 42038  97.3374 110.2131 0006866 186.4904 173.6248 15.27834973221600
1 42038U 17008CU  21040.42651617  .00002967  00000-0  11184-3 0  9994
2 42038  97.3374 110.4710 0006906 185.5187 174.5978 15.27836749221640
1 42038U 17008CU  21040.88497548  .00002796  00000-0  10553-3 0  9994
2 42038  97.3372 110.9222 0006953 183.9331 176.1855 15.27839324221718
1 42038U 17008CU  21041.34343396  .00002412  00000-0  91379-4 0  9998
2 42038  97.3372 111.3736 0007003 182.1565 177.9645 15.27841810221786
1 42038U 17008CU  21041.86738587  .00002326  00000-0  88221-4 0  9991
2 42038  97.3369 111.8893 0007051 180.4967 179.6267 15.27844027221862
1 42038U 17008CU  21042.45683060  .00002329  00000-0  88323-4 0  9998
2 42038  97.3368 112.4693 0007124 178.4226 181.7037 15.27847307221955
1 42038U 17008CU  21042.84979321  .00002304  00000-0  87400-4 0  9997
2 42038  97.3366 112.8561 0007171 177.0617 183.0666 15.27849253222015
1 42038U 17008CU  21043.43923614  .00002382  00000-0  90245-4 0  9994
2 42038  97.3364 113.4362 0007241 175.0601 185.0712 15.27852491222100
1 42038U 17008CU  21043.70121050  .00002318  00000-0  87907-4 0  9998
2 42038  97.3363 113.6940 0007264 174.2656 185.8668 15.27853656222145
1 42038U 17008CU  21043.83219765  .00002291  00000-0  86893-4 0  9996
2 42038  97.3362 113.8229 0007279 173.7963 186.3368 15.27854126222165
1 42038U 17008CU  21044.42163808  .00003197  00000-0  12019-3 0  9992
2 42038  97.3361 114.4030 0007337 171.9264 188.2095 15.27860167222250
1 42038U 17008CU  21044.81459775  .00003767  00000-0  14112-3 0  9995
2 42038  97.3359 114.7897 0007367 170.6294 189.5084 15.27864101222314
1 42038U 17008CU  21045.20755681  .00002914  00000-0  10978-3 0  9993
2 42038  97.3358 115.1765 0007402 169.3821 190.7576 15.27863817222372
1 42038U 17008CU  21045.92798028  .00002690  00000-0  10154-3 0  9991
2 42038  97.3356 115.8855 0007477 166.9432 193.2003 15.27867224222481
1 42038U 17008CU  21046.12445905  .00002702  00000-0  10196-3 0  9997
2 42038  97.3355 116.0789 0007490 166.3137 193.8306 15.27868447222514
1 42038U 17008CU  21046.18995191  .00002709  00000-0  10223-3 0  9998
2 42038  97.3355 116.1433 0007496 166.1008 194.0440 15.27868893222520
1 42038U 17008CU  21046.91037284  .00002600  00000-0  98195-4 0  9994
2 42038  97.3353 116.8524 0007565 163.7410 196.4074 15.27872716222633
1 42038U 17008CU  21047.17234357  .00002576  00000-0  97312-4 0  9995
2 42038  97.3353 117.1102 0007589 162.8958 197.2539 15.27874217222679
1 42038U 17008CU  21047.43431358  .00003147  00000-0  11827-3 0  9995
2 42038  97.3353 117.3680 0007605 162.0268 198.1242 15.27877729222714
1 42038U 17008CU  21048.22022218  .00003003  00000-0  11296-3 0  9995
2 42038  97.3351 118.1415 0007677 159.5636 200.5912 15.27882667222838
1 42038U 17008CU  21048.80965173  .00003213  00000-0  12065-3 0  9993
2 42038  97.3351 118.7216 0007731 157.6343 202.5235 15.27887310222928
1 42038U 17008CU  21049.46457134  .00003293  00000-0  12358-3 0  9992
2 42038  97.3351 119.3662 0007804 155.6487 204.5123 15.27892170223028
1 42038U 17008CU  21049.85752223  .00003274  00000-0  12288-3 0  9993
2 42038  97.3351 119.7530 0007843 154.4084 205.7545 15.27894887223083
1 42038U 17008CU  21050.44694719  .00003119  00000-0  11717-3 0  9999
2 42038  97.3349 120.3331 0007904 152.6760 207.4897 15.27899222223173
1 42038U 17008CU  21051.16735282  .00003134  00000-0  11768-3 0  9993
2 42038  97.3350 121.0421 0007956 150.4402 209.7288 15.27904929223281
1 42038U 17008CU  21051.49480853  .00003424  00000-0  12833-3 0  9996
2 42038  97.3351 121.3644 0007996 149.3831 210.7877 15.27908465223330
1 42038U 17008CU  21051.82226378  .00003551  00000-0  13295-3 0  9997
2 42038  97.3350 121.6867 0008023 148.3075 211.8649 15.27911582223388
1 42038U 17008CU  21052.41168012  .00005018  00000-0  18670-3 0  9995
2 42038  97.3350 122.2668 0008069 146.4409 213.7343 15.27921291223474
1 42038U 17008CU  21052.80462329  .00005050  00000-0  18787-3 0  9991
2 42038  97.3350 122.6536 0008092 145.2661 214.9109 15.27925581223531
1 42038U 17008CU  21053.45952538  .00005516  00000-0  20488-3 0  9997
2 42038  97.3349 123.2982 0008132 143.3919 216.7878 15.27934638223638
1 42038U 17008CU  21053.85246500  .00005470  00000-0  20317-3 0  9996
2 42038  97.3349 123.6849 0008160 142.2886 217.8927 15.27939492223692
1 42038U 17008CU  21054.44187241  .00005019  00000-0  18659-3 0  9993
2 42038  97.3349 124.2650 0008191 140.4614 219.7224 15.27945577223784
1 42038U 17008CU  21054.96578809  .00005232  00000-0  19435-3 0  9994
2 42038  97.3349 124.7806 0008231 138.8521 221.3341 15.27951897223865
1 42038U 17008CU  21055.48970201  .00005080  00000-0  18875-3 0  9992
2 42038  97.3348 125.2962 0008268 137.2255 222.9629 15.27957014223942
